[{"line1":"1 44066U 19009E   22221.06262611 -.00000129  00000-0  00000-0 0  9995","line2":"2 44066   2.9618  87.1082 0009775  78.1807 281.9222  0.98984288 12424"},{"line1":"1 44067U 19012A   22221.56160566 -.00000346  00000-0  00000-0 0  9992","line2":"2 44067   0.0694 266.4959 0002971 354.5232  29.1939  1.00273374 12616"},{"line1":"1 44068U 19012B   22221.22839204  .00211139  11890-6  18776-2 0  9997","line2":"2 44068  24.1667 192.0406 6414934  98.9944 333.6439  3.52799674 32958"},{"line1":"1 44071U 19014A   22221.44007897  .00000038  00000-0  00000-0 0  9990","line2":"2 44071   0.0151  90.2990 0000847 304.1280 142.2111  1.00270964 12511"},{"line1":"1 44072U 19015A   22221.83163001  .00000654  00000-0  85660-4 0  9998","line2":"2 44072  97.8715 295.7814 0001377  78.2528 281.8844 14.83654689183373"},{"line1":"1 44076U 19017A   22221.62618796 -.00000145  00000-0  00000-0 0  9994","line2":"2 44076   0.0976 293.5540 0034557 217.7955 112.1751  1.00272693 12497"},{"line1":"1 44077U 19017B   22221.26359313  .00049468 -43999-6  14471-2 0  9992","line2":"2 44077  26.7403 220.0504 6731027  37.9080 354.2503  3.05434390 32921"},{"line1":"1 44078U 19018A   22221.80180973  .00000036  00000-0  23394-4 0  9991","line2":"2 44078  98.4347 281.1303 0019152 145.9526 214.2888 14.43671872176985"},{"line1":"1 44079U 19018B   22221.42210278  .00020684  00000-0  61765-3 0  9996","line2":"2 44079  97.3055 280.9365 0007611 277.9831  82.0549 15.34609454186813"},{"line1":"1 44080U 19018C   22221.40398812  .00021054  00000-0  63515-3 0  9994","line2":"2 44080  97.3068 280.7419 0007428 275.7468  84.2928 15.34284434186794"},{"line1":"1 44081U 19018D   22221.41240045  .00018562  00000-0  56261-3 0  9990","line2":"2 44081  97.3081 280.8738 0008157 281.4578  78.5749 15.34156148186800"},{"line1":"1 44082U 19018E   22221.14033040  .00021926  00000-0  66216-3 0  9995","line2":"2 44082  97.3074 280.6878 0008131 282.9866  77.0469 15.34237186186764"},{"line1":"1 44083U 19018F   22221.56545430  .00009274  00000-0  34400-3 0  9995","line2":"2 44083  97.3190 279.4397 0008418 301.9840  58.0581 15.27785891186596"},{"line1":"1 44084U 19018G   22221.45246596  .00029321  00000-0  76814-3 0  9995","line2":"2 44084  97.3119 282.9224 0007771 274.1380  85.8977 15.38623152186913"},{"line1":"1 44085U 19018H   22221.45032213  .00016960  00000-0  51464-3 0  9994","line2":"2 44085  97.3105 281.6524 0008642 285.1181  74.9106 15.34135201186830"},{"line1":"1 44086U 19018J   22221.40448125  .00022693  00000-0  63899-3 0  9998","line2":"2 44086  97.3138 283.0097 0008093 276.8808  83.1515 15.36433789186910"},{"line1":"1 44087U 19018K   22221.44453662  .00028740  00000-0  74661-3 0  9993","line2":"2 44087  97.3142 283.5848 0007410 272.2272  87.8125 15.38888992186956"},{"line1":"1 44088U 19018L   22221.11513429  .00028681  00000-0  87232-3 0  9998","line2":"2 44088  97.3096 280.8417 0008454 283.8100  76.2202 15.33956066186764"},{"line1":"1 44089U 19018M   22221.43145037  .00021741  00000-0  63483-3 0  9992","line2":"2 44089  97.3109 281.4730 0008639 286.7329  73.2966 15.35298001186826"},{"line1":"1 44090U 19018N   22221.47333891  .00032464  00000-0  98499-3 0  9994","line2":"2 44090  97.3086 281.2335 0009227 285.5057  74.5167 15.34000316186815"},{"line1":"1 44091U 19018P   22221.43396896  .00025469  00000-0  74058-3 0  9997","line2":"2 44091  97.3067 281.6305 0008518 286.0343  73.9962 15.35399226186854"},{"line1":"1 44092U 19018Q   22221.41182825  .00014770  00000-0  43459-3 0  9995","line2":"2 44092  97.3075 281.8354 0006003 288.5943  71.4648 15.35158010186847"},{"line1":"1 44093U 19018R   22221.43686072  .00023989  00000-0  69281-3 0  9994","line2":"2 44093  97.3068 281.7240 0006353 290.5723  69.4839 15.35641814186837"},{"line1":"1 44094U 19018S   22221.13151670  .00018424  00000-0  56275-3 0  9990","line2":"2 44094  97.3099 281.0406 0006606 292.5253  67.5290 15.33924687186773"},{"line1":"1 44095U 19018T   22221.40280620  .00021526  00000-0  68690-3 0  9990","line2":"2 44095  97.3102 280.8394 0007069 294.4408  65.6096 15.32493458186789"},{"line1":"1 44096U 19018U   22221.49026364  .00010417  00000-0  31978-3 0  9999","line2":"2 44096  97.3098 281.5084 0006386 293.9491  66.1083 15.33900476186826"},{"line1":"1 44097U 19018V   22221.57328329  .00011023  00000-0  37477-3 0  9999","line2":"2 44097  97.3126 280.8556 0008186 300.2608  59.7822 15.30590861186781"},{"line1":"1 44098U 19018W   22221.41812231  .00022193  00000-0  67915-3 0  9993","line2":"2 44098  97.3117 281.4731 0007486 301.2274  58.8235 15.33819803186811"},{"line1":"1 44099U 19018X   22221.42178920  .00022730  00000-0  68277-3 0  9994","line2":"2 44099  97.3105 281.5154 0007169 298.0315  62.0202 15.34407104186826"},{"line1":"1 44100U 19018Y   22221.45050206  .00012998  00000-0  38577-3 0  9991","line2":"2 44100  97.3100 281.8838 0007326 296.7118  63.3376 15.34906271186866"},{"line1":"1 44101U 19018Z   22221.40757547  .00019505  00000-0  59147-3 0  9996","line2":"2 44101  97.3103 281.5448 0007234 303.2548  56.8002 15.34137094186832"},{"line1":"1 44102U 19018AA  22221.44018511  .00020987  00000-0  63576-3 0  9999","line2":"2 44102  97.3142 281.5356 0007628 299.3887  60.6594 15.34152422186822"},{"line1":"1 44103U 19018AB  22221.79782851  .00008127  00000-0  29709-3 0  9995","line2":"2 44103  97.3054 280.0052 0010348 311.2538  48.7810 15.28292265186799"},{"line1":"1 44104U 19018AC  22221.33658633  .00006474  00000-0  17916-3 0  9996","line2":"2 44104  97.3950 304.6963 0049954 304.8423  54.8128 15.36086316187715"},{"line1":"1 44105U 19018AD  22221.81473411  .00009762  00000-0  24769-3 0  9996","line2":"2 44105  97.4097 308.3461 0046981 304.4710  55.2101 15.38735259187877"},{"line1":"1 44106U 14055CB  22221.68003498 -.00000059  00000-0  00000+0 0  9991","line2":"2 44106  21.0672 278.9435 4784123 286.5092  27.6214  1.84990544 23702"},{"line1":"1 44107U 14055CC  22220.53066017 -.00000083  00000-0  00000-0 0  9999","line2":"2 44107  21.4549 304.7433 4648189 242.0150  63.8385  1.75836866 21760"},{"line1":"1 44108U 19018AE  22221.62061652  .00012140  00000-0  37816-3 0  9999","line2":"2 44108  97.3043 281.3463 0007649 294.3509 222.1457 15.33387292186731"},{"line1":"1 44109U 19018AF  22221.31064152  .00015294  00000-0  35866-3 0  9990","line2":"2 44109  97.3953 306.0562 0044213 297.3626  62.3124 15.41117112187599"},{"line1":"1 44112U 19020A   22221.38268803 -.00000020  00000-0  00000-0 0  9994","line2":"2 44112   0.0490   7.7032 0002917 140.5660 211.7465  5.00115379 61135"},{"line1":"1 44113U 19020B   22210.81524545 -.00000020  00000-0  00000+0 0  9998","line2":"2 44113   0.0551  23.5318 0001731 107.7214 228.7598  5.00115059 60689"},{"line1":"1 44114U 19020C   22221.49000602 -.00000021  00000-0  00000-0 0  9990","line2":"2 44114   0.0424 343.9011 0002995 158.2764 217.8415  5.00115491 61107"},{"line1":"1 44115U 19020D   22221.03675922 -.00000020  00000-0  00000-0 0  9993","line2":"2 44115   0.0491   8.2728 0002877 129.8454 221.9021  5.00115680 61207"},{"line1":"1 44116U 19020E   22221.42491170 -.00000017  00000-0  00000-0 0  9994","line2":"2 44116   0.0881 323.3219 0006624 345.3791  51.2378  5.21007433 63121"},{"line1":"1 44186U 19021A   22221.23313361  .00000146  00000-0  00000-0 0  9998","line2":"2 44186   0.0454   0.0371 0003127 200.8033 231.3170  1.00267078 12032"},{"line1":"1 44204U 19023A   22221.34660414 -.00000200  00000-0  00000+0 0  9998","line2":"2 44204  56.6357  52.4023 0022418 188.5674 319.5429  1.00294179 12245"},{"line1":"1 44205U 19023B   22221.55106310  .00012032  00000-0  10488-2 0  9991","line2":"2 44205  28.2484 241.0117 6742405 345.8616   2.0956  3.01263619 32257"},{"line1":"1 44207U 19024A   22221.79095145  .00001004  00000-0  54540-4 0  9999","line2":"2 44207  97.4599 225.2918 0001463  78.5595   7.2642 15.16762565181560"},{"line1":"1 44208U 19024B   22221.31267486  .00033490  00000-0  99150-3 0  9996","line2":"2 44208  97.4382 233.6964 0009046  52.5138 307.6926 15.34772134182123"},{"line1":"1 44209U 19024C   22221.79422986  .00000980  00000-0  53338-4 0  9994","line2":"2 44209  97.4600 225.2941 0001593  91.1174  12.6057 15.16762663181568"},{"line1":"1 44211U 19024E   22221.28037113  .00018460  00000-0  62753-3 0  9997","line2":"2 44211  97.4436 235.0340 0016846  51.4277 308.8470 15.30373321182037"},{"line1":"1 44212U 19024F   22221.00854251  .00018172  00000-0  60968-3 0  9994","line2":"2 44212  97.4436 235.4838 0009480  88.9503 271.2824 15.30897367182034"},{"line1":"1 44213U 19024G   22221.43916905  .00021000  00000-0  62995-3 0  9993","line2":"2 44213  97.3797 226.0999 0018143 130.7650 229.5171 15.34327491182337"},{"line1":"1 44225U 19026A   22221.31263684  .00009186  00000-0  35051-3 0  9998","line2":"2 44225  40.0190  84.5532 0006099  28.4586 331.6548 15.26541403181570"},{"line1":"1 44226U 19026B   22221.25880079  .00018362  00000-0  58281-3 0  9991","line2":"2 44226  40.0233  62.6399 0005668  55.8640 304.2702 15.32155183181888"},{"line1":"1 44227U 19026C   22221.29179223  .00015240  00000-0  51019-3 0  9992","line2":"2 44227  40.0209  68.7346 0005149  23.1162 336.9873 15.30530355181823"},{"line1":"1 44229U 19026E   22221.32795185  .00009932  00000-0  37848-3 0  9994","line2":"2 44229  40.0153  82.9169 0005634  37.4506 322.6689 15.26531557181594"},{"line1":"1 44231U 19027A   22221.60813065 -.00000258  00000-0  00000-0 0  9997","line2":"2 44231   0.9842  78.0789 0005492 109.1196 134.2574  1.00267569 11953"},{"line1":"1 44232U 19027B   22220.54272646  .00013635  00000-0  15701-2 0  9992","line2":"2 44232  19.4650 309.3746 6990185  49.8296 352.8405  2.67410897 29417"},{"line1":"1 44233U 19028A   22221.50552543  .00001186  00000-0  10473-3 0  9998","line2":"2 44233  37.0026  37.6333 0007219 160.6282 199.4736 14.98163598176541"},{"line1":"1 44234U 19028B   22221.27184094  .00003193  00000-0  15038-3 0  9997","line2":"2 44234  37.0268 216.1077 0052047  60.8237 299.7706 15.18620940178500"}]